[{"OBJECT_NAME":"SHIYAN-4 (SY-4)","OBJECT_ID":"2011-068B","EPOCH":"2026-03-09T23:00:28.675872","MEAN_MOTION":14.31088676,"ECCENTRICITY":0.00240064,"INCLINATION":98.7036,"RA_OF_ASC_NODE":87.8563,"ARG_OF_PERICENTER":77.8488,"MEAN_ANOMALY":342.0096,"EPHEMERIS_TYPE":0,"CLASSIFICATION_TYPE":"U","NORAD_CAT_ID":37931,"ELEMENT_SET_NO":999,"REV_AT_EPOCH":74470,"BSTAR":0.00010117128,"MEAN_MOTION_DOT":2.23e-6,"MEAN_MOTION_DDOT":0},{"OBJECT_NAME":"COSMOS 1275 DEB","OBJECT_ID":"1981-053UX","EPOCH":"2026-03-01T23:37:29.666496","MEAN_MOTION":14.3207639,"ECCENTRICITY":0.0031455,"INCLINATION":82.7594,"RA_OF_ASC_NODE":328.3421,"ARG_OF_PERICENTER":147.4719,"MEAN_ANOMALY":212.8415,"EPHEMERIS_TYPE":0,"CLASSIFICATION_TYPE":"U","NORAD_CAT_ID":42231,"ELEMENT_SET_NO":999,"REV_AT_EPOCH":63416,"BSTAR":0.0018196,"MEAN_MOTION_DOT":4.932e-5,"MEAN_MOTION_DDOT":0}]
